H1 CPF 01  gfz 2022 03 27 12  5862 tandemx   
H2 1003001  6202 36605    2022 03 27 12 59 42 2022 04 01 00 00 42   120 1 1  0 0 0
H9
10 0 59667  72702.000000  0   -1801242.747   2129416.156  -6306032.113
10 0 59667  72822.000000  0   -1040062.988   1707361.058  -6599266.524
10 0 59667  72942.000000  0    -268629.853   1242325.098  -6777387.898
10 0 59667  73062.000000  0     499012.365    742314.122  -6837333.390
10 0 59667  73182.000000  0    1249039.002    216174.074  -6778073.058
10 0 59667  73302.000000  0    1968089.419   -326562.422  -6600626.138
10 0 59667  73422.000000  0    2643498.981   -875844.314  -6308044.391
10 0 59667  73542.000000  0    3263518.527  -1421283.289  -5905365.811
10 0 59667  73662.000000  0    3817517.011  -1952344.806  -5399536.642
10 0 59667  73782.000000  0    4296166.444  -2458548.441  -4799303.781
10 0 59667  73902.000000  0    4691603.925  -2929673.852  -4115074.105
10 0 59667  74022.000000  0    4997567.109  -3355966.777  -3358744.250
10 0 59667  74142.000000  0    5209502.043  -3728341.671  -2543502.286
10 0 59667  74262.000000  0    5324639.659  -4038576.767  -1683602.064
10 0 59667  74382.000000  0    5342037.370  -4279496.099   -794114.832
10 0 59667  74502.000000  0    5262585.007  -4445134.533    109337.836
10 0 59667  74622.000000  0    5088973.708  -4530881.380   1010864.706
10 0 59667  74742.000000  0    4825627.133  -4533596.815   1894593.313
10 0 59667  74862.000000  0    4478597.608  -4451698.504   2744958.418
10 0 59667  74982.000000  0    4055430.412  -4285216.203   3546983.958
10 0 59667  75102.000000  0    3564999.270  -4035814.283   4286553.222
10 0 59667  75222.000000  0    3017316.325  -3706780.404   4950661.610
10 0 59667  75342.000000  0    2423323.163  -3302980.546   5527645.665
10 0 59667  75462.000000  0    1794668.020  -2830783.401   6007386.451
10 0 59667  75582.000000  0    1143472.771  -2297954.478   6381482.392
10 0 59667  75702.000000  0     482096.667  -1713524.259   6643390.176
10 0 59667  75822.000000  0    -177099.565  -1087632.272   6788533.170
10 0 59667  75942.000000  0    -821984.209   -431349.082   6814376.523
10 0 59667  76062.000000  0   -1440876.813    243520.023   6720468.285
10 0 59667  76182.000000  0   -2022759.103    924647.008   6508446.844
10 0 59667  76302.000000  0   -2557470.923   1599405.510   6182014.150
10 0 59667  76422.000000  0   -3035888.493   2255104.126   5746875.176
10 0 59667  76542.000000  0   -3450082.501   2879225.669   5210644.691
10 0 59667  76662.000000  0   -3793453.737   3459668.301   4582719.954
10 0 59667  76782.000000  0   -4060842.987   3984983.376   3874121.290
10 0 59667  76902.000000  0   -4248612.837   4444606.347   3097302.412
10 0 59667  77022.000000  0   -4354699.253   4829074.941   2265931.845
10 0 59667  77142.000000  0   -4378630.288   5130228.400   1394649.440
10 0 59667  77262.000000  0   -4321513.059   5341382.843    498803.689
10 0 59667  77382.000000  0   -4185989.299   5457479.394   -405825.319
10 0 59667  77502.000000  0   -3976158.795   5475201.533  -1303313.626
10 0 59667  77622.000000  0   -3697472.162   5393054.583  -2177884.514
10 0 59667  77742.000000  0   -3356596.468   5211408.489  -3014192.823
10 0 59667  77862.000000  0   -2961258.396   4932503.054  -3797599.531
10 0 59667  77982.000000  0   -2520069.258   4560414.391  -4514428.584
10 0 59667  78102.000000  0   -2042336.518   4100986.527  -5152201.559
10 0 59667  78222.000000  0   -1537867.481   3561731.642  -5699847.044
10 0 59667  78342.000000  0   -1016768.706   2951699.745  -6147884.597
10 0 59667  78462.000000  0    -489244.641   2281319.769  -6488578.388
10 0 59667  78582.000000  0      34599.438   1562217.753  -6716058.504
10 0 59667  78702.000000  0     544946.116    807015.349  -6826411.975
10 0 59667  78822.000000  0    1032445.369     29111.604  -6817743.463
10 0 59667  78942.000000  0    1488382.059   -757550.493  -6690203.873
10 0 59667  79062.000000  0    1904827.322  -1538727.767  -6445986.520
10 0 59667  79182.000000  0    2274773.643  -2300127.637  -6089293.784
10 0 59667  79302.000000  0    2592251.887  -3027663.523  -5626273.459
10 0 59667  79422.000000  0    2852429.111  -3707714.092  -5064924.956
10 0 59667  79542.000000  0    3051684.447  -4327379.828  -4414970.430
10 0 59667  79662.000000  0    3187660.259  -4874729.019  -3687696.316
10 0 59667  79782.000000  0    3259290.017  -5339033.059  -2895768.449
10 0 59667  79902.000000  0    3266800.802  -5710986.175  -2053017.942
10 0 59667  80022.000000  0    3211689.571  -5982900.453  -1174201.722
10 0 59667  80142.000000  0    3096673.428  -6148873.423   -274742.567
10 0 59667  80262.000000  0    2925613.469  -6204921.396    629547.695
10 0 59667  80382.000000  0    2703414.717  -6149075.122   1522752.820
10 0 59667  80502.000000  0    2435905.298  -5981436.584   2389142.195
10 0 59667  80622.000000  0    2129695.811  -5704191.141   3213457.391
10 0 59667  80742.000000  0    1792024.298  -5321577.979   3981186.977
10 0 59667  80862.000000  0    1430590.555  -4839820.980   4678826.385
10 0 59667  80982.000000  0    1053384.861  -4267020.316   5294117.301
10 0 59667  81102.000000  0     668513.774  -3613008.067   5816263.873
10 0 59667  81222.000000  0     284027.072  -2889168.995   6236118.279
10 0 59667  81342.000000  0     -92248.775  -2108235.036   6546334.018
10 0 59667  81462.000000  0    -452867.684  -1284057.326   6741487.816
10 0 59667  81582.000000  0    -790909.628   -431358.773   6818169.946
10 0 59667  81702.000000  0   -1100112.259    434530.383   6775040.796
10 0 59667  81822.000000  0   -1374986.456   1297948.262   6612852.533
10 0 59667  81942.000000  0   -1610913.483   2143183.931   6334436.581
10 0 59667  82062.000000  0   -1804223.094   2954762.973   5944657.434
10 0 59667  82182.000000  0   -1952250.992   3717731.861   5450332.259
10 0 59667  82302.000000  0   -2053374.570   4417936.256   4860118.248
10 0 59667  82422.000000  0   -2107027.266   5042289.847   4184367.208
10 0 59667  82542.000000  0   -2113689.929   5579026.903   3434948.142
10 0 59667  82662.000000  0   -2074860.001   6017932.895   2625040.151
10 0 59667  82782.000000  0   -1992998.692   6350547.371   1768899.585
10 0 59667  82902.000000  0   -1871456.840   6570335.177    881605.112
10 0 59667  83022.000000  0   -1714381.051   6672820.650    -21214.029
10 0 59667  83142.000000  0   -1526603.375   6655681.705   -923661.193
10 0 59667  83262.000000  0   -1313516.371   6518801.614  -1809863.019
10 0 59667  83382.000000  0   -1080936.164   6264271.496  -2664259.242
10 0 59667  83502.000000  0    -834959.368   5896348.110  -3471880.287
10 0 59667  83622.000000  0    -581816.858   5421372.069  -4218610.462
10 0 59667  83742.000000  0    -327728.056   4847646.604  -4891433.528
10 0 59667  83862.000000  0     -78758.732   4185280.618  -5478654.332
10 0 59667  83982.000000  0     159314.705   3446000.377  -5970094.720
10 0 59667  84102.000000  0     381131.015   2642933.008  -6357259.901
10 0 59667  84222.000000  0     581856.999   1790368.432  -6633473.130
10 0 59667  84342.000000  0     757286.693    903505.207  -6793980.069
10 0 59667  84462.000000  0     903924.683     -1817.685  -6836022.063
10 0 59667  84582.000000  0    1019052.521   -909398.655  -6758878.243
10 0 59667  84702.000000  0    1100777.218  -1802956.593  -6563874.818
10 0 59667  84822.000000  0    1148061.674  -2666414.119  -6254364.381
10 0 59667  84942.000000  0    1160737.397  -3484180.537  -5835676.811
10 0 59667  85062.000000  0    1139497.256  -4241432.260  -5315037.511
10 0 59667  85182.000000  0    1085869.951  -4924381.900  -4701452.535
10 0 59667  85302.000000  0    1002176.330  -5520533.297  -4005564.857
10 0 59667  85422.000000  0     891467.061  -6018918.827  -3239479.802
10 0 59667  85542.000000  0     757443.473  -6410311.750  -2416561.806
10 0 59667  85662.000000  0     604363.295  -6687409.710  -1551205.706
10 0 59667  85782.000000  0     436932.602  -6844983.851   -658584.572
10 0 59667  85902.000000  0     260186.421  -6879987.803    245620.279
10 0 59667  86022.000000  0      79361.241  -6791624.354   1145500.765
10 0 59667  86142.000000  0    -100237.383  -6581368.117   2025210.094
10 0 59667  86262.000000  0    -273368.920  -6252942.173   2869251.754
10 0 59667  86382.000000  0    -434989.859  -5812247.540   3662762.247
10 0 59668    102.000000  0    -580380.347  -5267247.942   4391777.735
10 0 59668    222.000000  0    -705262.503  -4627817.513   5043482.475
10 0 59668    342.000000  0    -805906.908  -3905551.995   5606434.319
10 0 59668    462.000000  0    -879225.463  -3113548.842   6070764.316
10 0 59668    582.000000  0    -922848.359  -2266159.668   6428344.516
10 0 59668    702.000000  0    -935183.438  -1378724.962   6672922.302
10 0 59668    822.000000  0    -915457.756   -467294.373   6800224.552
10 0 59668    942.000000  0    -863741.152    451665.066   6808028.383
10 0 59668   1062.000000  0    -780949.701   1361566.389   6696197.662
10 0 59668   1182.000000  0    -668829.035   2246001.776   6466685.203
10 0 59668   1302.000000  0    -529918.569   3089038.151   6123500.676
10 0 59668   1422.000000  0    -367497.410   3875505.239   5672645.025
10 0 59668   1542.000000  0    -185512.741   4591271.700   5122010.582
10 0 59668   1662.000000  0      11508.597   5223504.442   4481249.646
10 0 59668   1782.000000  0     218563.727   5760907.657   3761609.066
10 0 59668   1902.000000  0     430289.587   6193930.686   2975736.741
10 0 59668   2022.000000  0     641089.335   6514953.027   2137462.936
10 0 59668   2142.000000  0     845268.083   6718427.976   1261549.451
10 0 59668   2262.000000  0    1037171.218   6800983.998    363423.966
10 0 59668   2382.000000  0    1211324.373   6761483.371   -541099.519
10 0 59668   2502.000000  0    1362569.884   6601035.880  -1436107.764
10 0 59668   2622.000000  0    1486196.313   6322967.790  -2305875.811
10 0 59668   2742.000000  0    1578058.410   5932747.437  -3135149.864
99
